#dP2024  2  4  0  0  0.00000000      96 __u+U IGS20 FIT  IAC
## 2300      0.00000000   900.00000000 60344 0.0000000000000
+  120   C06C07C08C09C10C11C12C13C14C16C19C20C21C22C23C24C25
+        C26C27C28C29C30C32C33C34C35C36C37C38C39C40C41C42C43
+        C44C45C46E02E03E04E05E07E08E09E10E11E12E13E14E15E18
+        E19E21E24E25E26E27E30E31E33E34E36G01G02G03G04G05G06
+        G07G08G09G10G11G12G13G14G15G16G17G18G19G20G21G22G23
+        G24G25G26G27G28G29G30G31G32J02J03J04R01R02R03R04R05
+        R07R08R09R11R12R13R14R15R16R17R18R19R20R21R22R24R25
+        R26  0  0  0  0  0  0  0  0  0  0  0  0  0  0  0  0
++        10 10  7  9  9 10 10  7  8  9  7  7  8  7  6  7  7
++         8  6  6  6  6  7  7  6  6  6  7  9 10 10  5  6  6
++         6  6  6  6  8  8  7  8  9  7  6  6  6  6  6  6  6
++         6  6  7  6  7  6  5  5  6  6  6  6  6  6  8  6  6
++         6  6  6  6  5  6  6  6  5  5  6  6  6  6  6  6  6
++         7  6  5  6  6  6  6  6  7  8  0  8  7  7  7  7  5
++         7  5  6  7  5  6  6  6  5  7  7  7  7  6  6  9  7
++         7  0  0  0  0  0  0  0  0  0  0  0  0  0  0  0  0
%c M  cc GPS ccc cccc cccc cccc cccc ccccc ccccc ccccc ccccc
%c cc cc ccc ccc cccc cccc cccc cccc ccccc ccccc ccccc ccccc
%f  0.0000000  0.000000000  0.00000000000  0.000000000000000
%f  0.0000000  0.000000000  0.00000000000  0.000000000000000
%i    0    0    0    0      0      0      0      0         0
%i    0    0    0    0      0      0      0      0         0
/* INFORMATION & ANALYSIS CENTER (IAC)      ULTRA-RAPID DATA
/* S/V CLOCKS ARE ALIGNED TO GNSS TIME                      
/* G:C1WC2W R:C1PC2P E:C1XC5X C:C2IC6I J:C1CC2S             
/* PCV:IGS20_2290 OL/AL:FES2004  NONE     YN ORB:CoN CLK:CoN
*  2024 02 04 22  0  0.00000000
PC06  -2430.688533  35472.978899  22923.669342     89.674037
PC07 -12583.936567  26569.348582 -30177.688999   -749.182031
PC08 -17527.715894  36681.527676  10735.405672     62.612821
PC09   3503.052646  39564.300579  15462.872796   -446.155968
PC10  -4883.781551  27319.522806 -31462.807838     98.261972
PC11  14539.303525  -6490.327350  22988.828188    393.815401
PC12  21811.198215  11573.570036  13049.513488    777.931588
PC13 -10041.588261  36573.750847  18270.894443    414.387555
PC14  24501.243465 -10893.369008  -7612.229969    118.395185
PC16  -3460.031454  34407.842829  24610.692553   -320.935490
PC19 -17711.797117  14864.721242  15666.951741   -930.045849
PC20 -27215.939307   6238.856793    124.991564   -131.512565
PC21  20991.952026   7054.088435  16984.547183   -962.805386
PC22   2498.210831  15454.996671  23102.519618   -121.791941
PC23   1549.461544 -26452.758692   8759.232064   -783.634292
PC24  17622.010197  -6088.438065 -20794.906928    854.499481
PC25  12674.664730 -23551.797704  -8017.912815    318.366281
PC26  12069.291211  13524.717413 -21229.774632   -244.588080
PC27 -20902.610946 -17797.261200  -4985.067984 999999.999999
PC28 -11006.307612 -23276.812969  10763.796445    202.614657
PC29  -7245.751959  15028.164461 -22373.849758    237.444557
PC30 -20650.346743  -2346.256482 -18616.750750    -21.571928
PC32 -21014.253945  -6913.331102 -16999.234176   -562.899654
PC33  17689.522759 -14947.363939 -15551.865063   -946.546571
PC34  20043.307864    905.146999  19395.359565    362.265548
PC35  11799.811238  22894.408092 -10803.794041    441.198271
PC36 -13472.563950  22905.747307   8511.240400    -26.777807
PC37 -11458.206689 -14329.533779  21035.254366   -934.400523
PC38 -21117.449430  36337.496594   2263.272210    134.791604
PC39  -7172.419394  29705.740730  29194.601492     -6.986275
PC40 -18628.263258  19802.014734 -32299.543232    -55.083880
PC41  -1654.115513 -15637.997964 -22996.103600   -886.723018
PC42  27360.744537  -5206.865819   1545.430076   -457.685302
PC43   8190.549950 -14387.884296  22452.547453     59.149335
PC44  21545.630502  17115.740842   4746.533791    374.744589
PC45  -1438.941071  26344.779424  -9060.953697    -67.990227
PC46 -17555.326742   7081.532960  20476.521006   -121.224077
PE02 -21198.473107  20336.740662  -3550.062269    100.745526
PE03 -15334.311063  11201.443268  22704.979327    -91.667069
PE04  -6249.113918 -18766.356806 -22013.269529   -319.753976
PE05 -27663.850997  -2778.048466  10157.657177   4716.953548
PE07  23668.616632  15436.747225   8809.786699   -102.067701
PE08   5538.337493  18559.760213  22382.014106   -218.815040
PE09 -23631.667779 -15424.642544  -8946.888682   -324.451074
PE10  -8988.632363 -27389.135223  -6723.076069   -599.461627
PE11 -13905.638697 -20630.079145 -16027.267348   3262.628862
PE12  -3178.801687 -29308.132751   2529.223142   -892.476826
PE13  13632.329371  21214.425372  15520.258470    -20.091822
PE14  22022.828266   9672.345540   -353.274954     30.210691
PE15   2884.536630  29305.385704  -3062.427514    -84.003691
PE18 -30632.000213  -5744.913173  -8488.944285    289.834667
PE19  17408.633057  -9589.222369 -21929.572397   -677.678104
PE21  24893.375284  -7864.204549 -13968.187592   -577.376114
PE24 -13869.363186 -10222.062088  24044.574122   -580.343813
PE25 -24809.428624   7526.188752  14271.001364      0.442596
PE26  16327.971765     90.258500  24699.226045    359.384155
PE27  14248.085975   9789.333819 -24035.358118   -266.627673
PE30  -4935.978081  21564.581651 -19674.745607   -880.691343
PE31   4692.215383 -21484.071852  19817.290512    -15.279272
PE33   9710.196515 -19616.744570  19934.131116      7.079319
PE34  -9369.825664  20118.986341 -19583.252260    -92.838769
PE36 -16235.880983   -848.295963 -24726.352841   -181.442048
PG01  12786.795423  -8484.065791  21289.832206    168.312518
PG02  15586.877666   -442.257650  22025.632208   -490.447660
PG03  22337.045262 -10219.500425   9811.814274    172.259965
PG04  23222.742245   -407.137112 -12990.917629    283.620564
PG05 -18953.194483     -7.771582 -18814.435887   -160.579942
PG06  -5964.103868 -25690.762064  -2519.149072    419.537691
PG07   6864.123440 -20572.144212 -14517.839853    -54.179172
PG08  25895.610293   4946.777106   4661.638210   -165.466644
PG09  13464.610931 -10613.086865 -20383.954897     81.405330
PG10  -4611.893921  19327.277073  17664.858157    -72.034138
PG11 -11814.864192 -19765.616953 -13252.068233   -564.677488
PG12 -23050.075079   8482.610360   9734.633709   -474.790710
PG13 -22599.238426 -13973.684026  -2626.977885    622.505609
PG14   8530.003909 -20355.680854  14663.493158    317.180316
PG15 -26204.945206  -2290.821304   3907.204729    124.347120
PG16  15021.912383   7354.685110 -21061.901995   -369.669074
PG17    -63.769989 -16074.214944  21544.860930    717.966444
PG18  -6258.026015  21492.235057 -14136.209698   -548.331251
PG19 -10379.173858 -17800.774413  16769.011336    436.158585
PG20  -9977.571771 -11923.067046 -21485.220723    388.719140
PG21  16565.343902   6052.891764  20613.708794    136.074319
PG22   1793.068900 -18145.009013  19842.288676     36.571591
PG23 -15208.341089  20343.709523   7447.107857    149.383887
PG24 -16305.920031  -1925.920243  20533.369523   -426.273449
PG25 -19968.855094  17276.087947    149.124551    487.568834
PG26   6617.346243  15212.154344 -20827.368126    193.572225
PG27  22134.325550  13283.194374  -7422.462355     -1.119788
PG28   5319.742855  26021.285490    367.593884   -120.394203
PG29 -15492.832689   8038.259432 -20098.305931   -607.573878
PG30   -365.816533 -25790.436867  -5587.521925   -436.760005
PG31  10174.287868  22578.245421  -9234.035761   -227.655826
PG32   4927.323167  16722.342176  20294.102913   -609.763993
PJ02 -36479.513483  20586.976848   -412.917902     -1.707834
PJ03 -19528.875671  25050.027416 -23060.574094     -0.216853
PJ04 -25466.522428  31418.184742  18318.287847 999999.999999
PR01  23671.824448   2705.488465   9102.294841     76.321437
PR02  23618.991649  -4695.225861  -8468.157019    -22.449369
PR03  10001.254074 -10305.938356 -21047.591018     93.919953
PR04  -8658.750203  -9843.946191 -21845.021500    222.034312
PR05 -22662.094842  -4348.040060 -10827.371490    126.410337
PR07  -8954.213350  10461.847477  21503.028896     75.103330
PR08   9011.420394   9878.076817  21793.285585    -74.295552
PR09 -15101.242893  14309.589512  14828.875677    168.200039
PR11  -1403.197405  19724.982646 -16116.815298     35.399447
PR12  10603.998484   3451.186392 -22925.047239     36.389197
PR13  15046.453269 -12106.405225 -16689.239995    -44.029973
PR14  10860.968967 -23025.871202   1448.473572     26.014069
PR15    466.487578 -18894.907492  17139.464195     82.486315
PR16 -10361.313193  -3615.682639  23029.108445     23.027189
PR17   -565.517030 -17160.329202  18890.251523     58.492566
PR18 -10977.763557 -22420.156085   5120.324097    125.726665
PR19 -15268.470733 -17854.447505  -9931.002649   -264.605264
PR20 -11303.871301    681.181919 -22838.476534   -107.790550
PR21    693.042391  17295.650323 -18723.561095    -74.417598
PR22  10869.945000  22743.674704  -3936.737520    106.519881
PR24  11405.072074  -1937.575755  22753.255106    -42.620476
PR25   -295.706410  17341.760897 -18689.602750     83.650474
PR26   8062.957066   9985.995861  22062.979207   -199.980619
EOF
